[{"OBJECT_NAME":"QIANFAN-18","OBJECT_ID":"2024-140T","EPOCH":"2026-03-06T20:23:40.392384","MEAN_MOTION":13.51003766,"ECCENTRICITY":0.0013035,"INCLINATION":88.9718,"RA_OF_ASC_NODE":290.2723,"ARG_OF_PERICENTER":311.1878,"MEAN_ANOMALY":48.8148,"EPHEMERIS_TYPE":0,"CLASSIFICATION_TYPE":"U","NORAD_CAT_ID":60396,"ELEMENT_SET_NO":999,"REV_AT_EPOCH":7888,"BSTAR":8.9737e-5,"MEAN_MOTION_DOT":7.0e-7,"MEAN_MOTION_DDOT":0},{"OBJECT_NAME":"QIANFAN-19","OBJECT_ID":"2024-185A","EPOCH":"2026-03-06T20:19:19.315776","MEAN_MOTION":14.14388678,"ECCENTRICITY":0.0008526,"INCLINATION":88.976,"RA_OF_ASC_NODE":68.2835,"ARG_OF_PERICENTER":47.8886,"MEAN_ANOMALY":312.3024,"EPHEMERIS_TYPE":0,"CLASSIFICATION_TYPE":"U","NORAD_CAT_ID":61552,"ELEMENT_SET_NO":999,"REV_AT_EPOCH":8155,"BSTAR":0.0003402,"MEAN_MOTION_DOT":6.65e-6,"MEAN_MOTION_DDOT":0},{"OBJECT_NAME":"QIANFAN-20","OBJECT_ID":"2024-185B","EPOCH":"2026-03-06T20:23:11.378400","MEAN_MOTION":14.08935086,"ECCENTRICITY":0.0007876,"INCLINATION":88.9758,"RA_OF_ASC_NODE":68.6919,"ARG_OF_PERICENTER":79.8764,"MEAN_ANOMALY":280.3308,"EPHEMERIS_TYPE":0,"CLASSIFICATION_TYPE":"U","NORAD_CAT_ID":61553,"ELEMENT_SET_NO":999,"REV_AT_EPOCH":8133,"BSTAR":0.00036787,"MEAN_MOTION_DOT":6.5e-6,"MEAN_MOTION_DDOT":0},{"OBJECT_NAME":"QIANFAN-21","OBJECT_ID":"2024-185C","EPOCH":"2026-03-06T19:13:32.854944","MEAN_MOTION":14.22730012,"ECCENTRICITY":0.0013027,"INCLINATION":88.9678,"RA_OF_ASC_NODE":67.113,"ARG_OF_PERICENTER":89.7358,"MEAN_ANOMALY":270.5326,"EPHEMERIS_TYPE":0,"CLASSIFICATION_TYPE":"U","NORAD_CAT_ID":61554,"ELEMENT_SET_NO":999,"REV_AT_EPOCH":8192,"BSTAR":0.00036559,"MEAN_MOTION_DOT":8.34e-6,"MEAN_MOTION_DDOT":0},{"OBJECT_NAME":"QIANFAN-22","OBJECT_ID":"2024-185D","EPOCH":"2026-03-06T19:18:47.871936","MEAN_MOTION":13.86339586,"ECCENTRICITY":0.0008629,"INCLINATION":88.9741,"RA_OF_ASC_NODE":70.0181,"ARG_OF_PERICENTER":97.239,"MEAN_ANOMALY":262.9762,"EPHEMERIS_TYPE":0,"CLASSIFICATION_TYPE":"U","NORAD_CAT_ID":61555,"ELEMENT_SET_NO":999,"REV_AT_EPOCH":8058,"BSTAR":0.00027776,"MEAN_MOTION_DOT":3.35e-6,"MEAN_MOTION_DDOT":0},{"OBJECT_NAME":"QIANFAN-23","OBJECT_ID":"2024-185E","EPOCH":"2026-03-06T20:16:35.570496","MEAN_MOTION":14.16394036,"ECCENTRICITY":0.0009483,"INCLINATION":88.9753,"RA_OF_ASC_NODE":68.0538,"ARG_OF_PERICENTER":55.7186,"MEAN_ANOMALY":304.4899,"EPHEMERIS_TYPE":0,"CLASSIFICATION_TYPE":"U","NORAD_CAT_ID":61556,"ELEMENT_SET_NO":999,"REV_AT_EPOCH":8165,"BSTAR":0.00036739,"MEAN_MOTION_DOT":7.44e-6,"MEAN_MOTION_DDOT":0},{"OBJECT_NAME":"QIANFAN-24","OBJECT_ID":"2024-185F","EPOCH":"2026-03-06T19:16:33.867264","MEAN_MOTION":14.23934746,"ECCENTRICITY":0.0010482,"INCLINATION":88.9736,"RA_OF_ASC_NODE":67.3261,"ARG_OF_PERICENTER":35.7197,"MEAN_ANOMALY":324.4695,"EPHEMERIS_TYPE":0,"CLASSIFICATION_TYPE":"U","NORAD_CAT_ID":61557,"ELEMENT_SET_NO":999,"REV_AT_EPOCH":8198,"BSTAR":0.00044919,"MEAN_MOTION_DOT":1.044e-5,"MEAN_MOTION_DDOT":0},{"OBJECT_NAME":"QIANFAN-25","OBJECT_ID":"2024-185G","EPOCH":"2026-03-06T20:19:13.963296","MEAN_MOTION":14.05996472,"ECCENTRICITY":0.0011911,"INCLINATION":88.975,"RA_OF_ASC_NODE":68.651,"ARG_OF_PERICENTER":62.2576,"MEAN_ANOMALY":297.9812,"EPHEMERIS_TYPE":0,"CLASSIFICATION_TYPE":"U","NORAD_CAT_ID":61558,"ELEMENT_SET_NO":999,"REV_AT_EPOCH":8132,"BSTAR":0.00034409,"MEAN_MOTION_DOT":5.78e-6,"MEAN_MOTION_DDOT":0},{"OBJECT_NAME":"QIANFAN-26","OBJECT_ID":"2024-185H","EPOCH":"2026-03-06T20:16:11.944416","MEAN_MOTION":13.77862074,"ECCENTRICITY":0.0007735,"INCLINATION":88.9747,"RA_OF_ASC_NODE":70.6557,"ARG_OF_PERICENTER":109.8911,"MEAN_ANOMALY":250.309,"EPHEMERIS_TYPE":0,"CLASSIFICATION_TYPE":"U","NORAD_CAT_ID":61559,"ELEMENT_SET_NO":999,"REV_AT_EPOCH":8025,"BSTAR":0.00027541,"MEAN_MOTION_DOT":2.89e-6,"MEAN_MOTION_DDOT":0},{"OBJECT_NAME":"QIANFAN-27","OBJECT_ID":"2024-185J","EPOCH":"2026-03-06T19:14:26.873952","MEAN_MOTION":14.27444914,"ECCENTRICITY":0.0008537,"INCLINATION":88.975,"RA_OF_ASC_NODE":67.0687,"ARG_OF_PERICENTER":29.079,"MEAN_ANOMALY":331.0878,"EPHEMERIS_TYPE":0,"CLASSIFICATION_TYPE":"U","NORAD_CAT_ID":61560,"ELEMENT_SET_NO":999,"REV_AT_EPOCH":8215,"BSTAR":0.0002855,"MEAN_MOTION_DOT":7.15e-6,"MEAN_MOTION_DDOT":0},{"OBJECT_NAME":"QIANFAN-28","OBJECT_ID":"2024-185K","EPOCH":"2026-03-06T19:27:14.741856","MEAN_MOTION":14.28215569,"ECCENTRICITY":0.0008137,"INCLINATION":88.9765,"RA_OF_ASC_NODE":67.0749,"ARG_OF_PERICENTER":30.1981,"MEAN_ANOMALY":329.9681,"EPHEMERIS_TYPE":0,"CLASSIFICATION_TYPE":"U","NORAD_CAT_ID":61561,"ELEMENT_SET_NO":999,"REV_AT_EPOCH":8217,"BSTAR":0.00047397,"MEAN_MOTION_DOT":1.195e-5,"MEAN_MOTION_DDOT":0},{"OBJECT_NAME":"QIANFAN-29","OBJECT_ID":"2024-185L","EPOCH":"2026-03-06T19:10:43.954176","MEAN_MOTION":13.51044136,"ECCENTRICITY":0.0010476,"INCLINATION":88.9719,"RA_OF_ASC_NODE":72.6071,"ARG_OF_PERICENTER":156.5064,"MEAN_ANOMALY":203.6568,"EPHEMERIS_TYPE":0,"CLASSIFICATION_TYPE":"U","NORAD_CAT_ID":61562,"ELEMENT_SET_NO":999,"REV_AT_EPOCH":7914,"BSTAR":0.00029802,"MEAN_MOTION_DOT":2.05e-6,"MEAN_MOTION_DDOT":0},{"OBJECT_NAME":"QIANFAN-30","OBJECT_ID":"2024-185M","EPOCH":"2026-03-06T20:06:14.756256","MEAN_MOTION":13.50019169,"ECCENTRICITY":0.0008768,"INCLINATION":88.9739,"RA_OF_ASC_NODE":72.1607,"ARG_OF_PERICENTER":140.841,"MEAN_ANOMALY":219.3377,"EPHEMERIS_TYPE":0,"CLASSIFICATION_TYPE":"U","NORAD_CAT_ID":61563,"ELEMENT_SET_NO":999,"REV_AT_EPOCH":7941,"BSTAR":0.00029595,"MEAN_MOTION_DOT":2.0e-6,"MEAN_MOTION_DDOT":0},{"OBJECT_NAME":"QIANFAN-31","OBJECT_ID":"2024-185N","EPOCH":"2026-03-06T19:52:18.727392","MEAN_MOTION":13.58003603,"ECCENTRICITY":0.0008429,"INCLINATION":88.9724,"RA_OF_ASC_NODE":71.8298,"ARG_OF_PERICENTER":132.5036,"MEAN_ANOMALY":227.6832,"EPHEMERIS_TYPE":0,"CLASSIFICATION_TYPE":"U","NORAD_CAT_ID":61564,"ELEMENT_SET_NO":999,"REV_AT_EPOCH":7957,"BSTAR":0.00031197,"MEAN_MOTION_DOT":2.38e-6,"MEAN_MOTION_DDOT":0},{"OBJECT_NAME":"QIANFAN-32","OBJECT_ID":"2024-185P","EPOCH":"2026-03-06T20:00:32.904288","MEAN_MOTION":13.50764349,"ECCENTRICITY":0.0009831,"INCLINATION":88.9783,"RA_OF_ASC_NODE":72.3211,"ARG_OF_PERICENTER":169.2206,"MEAN_ANOMALY":190.9157,"EPHEMERIS_TYPE":0,"CLASSIFICATION_TYPE":"U","NORAD_CAT_ID":61565,"ELEMENT_SET_NO":999,"REV_AT_EPOCH":7939,"BSTAR":0.00024946,"MEAN_MOTION_DOT":1.73e-6,"MEAN_MOTION_DDOT":0},{"OBJECT_NAME":"QIANFAN-33","OBJECT_ID":"2024-185Q","EPOCH":"2026-03-06T19:17:19.990176","MEAN_MOTION":13.96624215,"ECCENTRICITY":0.0009266,"INCLINATION":88.9738,"RA_OF_ASC_NODE":69.4169,"ARG_OF_PERICENTER":70.7362,"MEAN_ANOMALY":289.4817,"EPHEMERIS_TYPE":0,"CLASSIFICATION_TYPE":"U","NORAD_CAT_ID":61566,"ELEMENT_SET_NO":999,"REV_AT_EPOCH":8089,"BSTAR":0.00036709,"MEAN_MOTION_DOT":5.22e-6,"MEAN_MOTION_DDOT":0},{"OBJECT_NAME":"QIANFAN-34","OBJECT_ID":"2024-185R","EPOCH":"2026-03-06T20:27:22.938048","MEAN_MOTION":14.02384471,"ECCENTRICITY":0.0008295,"INCLINATION":88.9715,"RA_OF_ASC_NODE":68.8634,"ARG_OF_PERICENTER":74.0754,"MEAN_ANOMALY":286.134,"EPHEMERIS_TYPE":0,"CLASSIFICATION_TYPE":"U","NORAD_CAT_ID":61567,"ELEMENT_SET_NO":999,"REV_AT_EPOCH":8114,"BSTAR":0.00037494,"MEAN_MOTION_DOT":5.89e-6,"MEAN_MOTION_DDOT":0}]
