QIANFAN-18              
1 60396U 24140T   26065.84977306  .00000070  00000+0  89737-4 0  9992
2 60396  88.9718 290.2723 0013035 311.1878  48.8148 13.51003766 78889
QIANFAN-19              
1 61552U 24185A   26065.84675134  .00000665  00000+0  34020-3 0  9994
2 61552  88.9760  68.2835 0008526  47.8886 312.3024 14.14388678 81557
QIANFAN-20              
1 61553U 24185B   26065.84943725  .00000650  00000+0  36787-3 0  9995
2 61553  88.9758  68.6919 0007876  79.8764 280.3308 14.08935086 81338
QIANFAN-21              
1 61554U 24185C   26065.80107471  .00000834  00000+0  36559-3 0  9993
2 61554  88.9678  67.1130 0013027  89.7358 270.5326 14.22730012 81927
QIANFAN-22              
1 61555U 24185D   26065.80472074  .00000335  00000+0  27776-3 0  9995
2 61555  88.9741  70.0181 0008629  97.2390 262.9762 13.86339586 80580
QIANFAN-23              
1 61556U 24185E   26065.84485614  .00000744  00000+0  36739-3 0  9997
2 61556  88.9753  68.0538 0009483  55.7186 304.4899 14.16394036 81655
QIANFAN-24              
1 61557U 24185F   26065.80316976  .00001044  00000+0  44919-3 0  9991
2 61557  88.9736  67.3261 0010482  35.7197 324.4695 14.23934746 81981
QIANFAN-25              
1 61558U 24185G   26065.84668939  .00000578  00000+0  34409-3 0  9999
2 61558  88.9750  68.6510 0011911  62.2576 297.9812 14.05996472 81320
QIANFAN-26              
1 61559U 24185H   26065.84458269  .00000289  00000+0  27541-3 0  9991
2 61559  88.9747  70.6557 0007735 109.8911 250.3090 13.77862074 80251
QIANFAN-27              
1 61560U 24185J   26065.80169993  .00000715  00000+0  28550-3 0  9997
2 61560  88.9750  67.0687 0008537  29.0790 331.0878 14.27444914 82157
QIANFAN-28              
1 61561U 24185K   26065.81058729  .00001195  00000+0  47397-3 0  9996
2 61561  88.9765  67.0749 0008137  30.1981 329.9681 14.28215569 82177
QIANFAN-29              
1 61562U 24185L   26065.79911984  .00000205  00000+0  29802-3 0  9997
2 61562  88.9719  72.6071 0010476 156.5064 203.6568 13.51044136 79141
QIANFAN-30              
1 61563U 24185M   26065.83767079  .00000200  00000+0  29595-3 0  9991
2 61563  88.9739  72.1607 0008768 140.8410 219.3377 13.50019169 79415
QIANFAN-31              
1 61564U 24185N   26065.82799453  .00000238  00000+0  31197-3 0  9994
2 61564  88.9724  71.8298 0008429 132.5036 227.6832 13.58003603 79577
QIANFAN-32              
1 61565U 24185P   26065.83371417  .00000173  00000+0  24946-3 0  9994
2 61565  88.9783  72.3211 0009831 169.2206 190.9157 13.50764349 79393
QIANFAN-33              
1 61566U 24185Q   26065.80370359  .00000522  00000+0  36709-3 0  9994
2 61566  88.9738  69.4169 0009266  70.7362 289.4817 13.96624215 80895
QIANFAN-34              
1 61567U 24185R   26065.85234882  .00000589  00000+0  37494-3 0  9995
2 61567  88.9715  68.8634 0008295  74.0754 286.1340 14.02384471 81143
